ONEWEB-0393             
1 50473U 21132E   23059.21459311  .00000022  00000+0  24413-4 0  9994
2 50473  87.9068 245.1977 0001758 105.3158 254.8168 13.17988411 60719
ONEWEB-0393             
1 50473U 21132E   23059.51825887  .00000112  00000+0  25357-3 0  9999
2 50473  87.9069 245.1371 0001764 105.4387 254.6940 13.17989082 59461
ONEWEB-0393             
1 50473U 21132E   23059.89784238  .00000035  00000+0  57869-4 0  9992
2 50473  87.9069 245.0614 0001767 105.5367 254.5960 13.17988889 59513
ONEWEB-0393             
1 50473U 21132E   23060.42925835  .00000091  00000+0  20101-3 0  9993
2 50473  87.9070 244.9554 0001777 105.5522 254.5806 13.17989208 60876
ONEWEB-0393             
1 50473U 21132E   23060.88475900 -.00000020  00000+0 -84773-4 0  9996
2 50473  87.9072 244.8646 0001773 105.7701 254.3626 13.17988333 59645
ONEWEB-0393             
1 50473U 21132E   23061.79575713  .00000152  00000+0  35568-3 0  9991
2 50473  87.9073 244.6830 0001796 105.7854 254.3476 13.17989318 59763
ONEWEB-0393             
1 50473U 21132E   23062.47900768  .00000071  00000+0  14767-3 0  9997
2 50473  87.9076 244.5469 0001760 105.4388 254.6938 13.17988321 59852
ONEWEB-0393             
1 50473U 21132E   23062.47900768  .00000071  00000+0  14767-3 0  9997
2 50473  87.9076 244.5469 0001760 105.4388 254.6938 13.17988321 61147
ONEWEB-0393             
1 50473U 21132E   23062.85859010  .00000117  00000+0  26641-3 0  9997
2 50473  87.9077 244.4713 0001769 105.1510 254.9818 13.17989095 59902
